CCSDS_OMM_VERS = 2.0
CREATION_DATE  = 
ORIGINATOR     = 

OBJECT_NAME    = CZ-2C R/B
OBJECT_ID      = 2022-132E
CENTER_NAME    = EARTH
REF_FRAME      = TEME
TIME_SYSTEM    = UTC
MEAN_ELEMENT_THEORY = SGP/SGP4

EPOCH          = 2026-02-05T22:45:51.670080
MEAN_MOTION    = 15.59113050
ECCENTRICITY   = .00177976
INCLINATION    = 97.2959
RA_OF_ASC_NODE = 39.3746
ARG_OF_PERICENTER = 200.4319
MEAN_ANOMALY   = 159.6228

EPHEMERIS_TYPE = 0
CLASSIFICATION_TYPE = U
NORAD_CAT_ID   = 54039
ELEMENT_SET_NO = 999
REV_AT_EPOCH   = 18542
BSTAR          = .59183695E-3
MEAN_MOTION_DOT = .46646E-3
MEAN_MOTION_DDOT = 0

CCSDS_OMM_VERS = 2.0
CREATION_DATE  = 
ORIGINATOR     = 

OBJECT_NAME    = GSLV R/B
OBJECT_ID      = 2022-138AN
CENTER_NAME    = EARTH
REF_FRAME      = TEME
TIME_SYSTEM    = UTC
MEAN_ELEMENT_THEORY = SGP/SGP4

EPOCH          = 2026-02-05T21:28:35.912640
MEAN_MOTION    = 14.96529532
ECCENTRICITY   = .00193064
INCLINATION    = 87.3863
RA_OF_ASC_NODE = 177.0016
ARG_OF_PERICENTER = 266.8043
MEAN_ANOMALY   = 93.0979

EPHEMERIS_TYPE = 0
CLASSIFICATION_TYPE = U
NORAD_CAT_ID   = 54149
ELEMENT_SET_NO = 999
REV_AT_EPOCH   = 17917
BSTAR          = .41715304E-3
MEAN_MOTION_DOT = .4785E-4
MEAN_MOTION_DDOT = 0

CCSDS_OMM_VERS = 2.0
CREATION_DATE  = 
ORIGINATOR     = 

OBJECT_NAME    = XRISM
OBJECT_ID      = 2023-137A
CENTER_NAME    = EARTH
REF_FRAME      = TEME
TIME_SYSTEM    = UTC
MEAN_ELEMENT_THEORY = SGP/SGP4

EPOCH          = 2026-02-05T13:00:45.181440
MEAN_MOTION    = 15.11094649
ECCENTRICITY   = .0007999
INCLINATION    = 31.0019
RA_OF_ASC_NODE = 131.5250
ARG_OF_PERICENTER = 77.5176
MEAN_ANOMALY   = 282.6357

EPHEMERIS_TYPE = 0
CLASSIFICATION_TYPE = U
NORAD_CAT_ID   = 57800
ELEMENT_SET_NO = 999
REV_AT_EPOCH   = 13292
BSTAR          = .55989E-3
MEAN_MOTION_DOT = .9716E-4
MEAN_MOTION_DDOT = 0

CCSDS_OMM_VERS = 2.0
CREATION_DATE  = 
ORIGINATOR     = 

OBJECT_NAME    = ACS3
OBJECT_ID      = 2024-077B
CENTER_NAME    = EARTH
REF_FRAME      = TEME
TIME_SYSTEM    = UTC
MEAN_ELEMENT_THEORY = SGP/SGP4

EPOCH          = 2026-02-05T20:55:56.862624
MEAN_MOTION    = 13.88282441
ECCENTRICITY   = .00454576
INCLINATION    = 97.2249
RA_OF_ASC_NODE = 345.1363
ARG_OF_PERICENTER = 177.6115
MEAN_ANOMALY   = 182.5273

EPHEMERIS_TYPE = 0
CLASSIFICATION_TYPE = U
NORAD_CAT_ID   = 59588
ELEMENT_SET_NO = 999
REV_AT_EPOCH   = 8978
BSTAR          = .17745787E-1
MEAN_MOTION_DOT = .21436E-3
MEAN_MOTION_DDOT = 0

CCSDS_OMM_VERS = 2.0
CREATION_DATE  = 
ORIGINATOR     = 

OBJECT_NAME    = SZ-21 MODULE
OBJECT_ID      = 2025-246C
CENTER_NAME    = EARTH
REF_FRAME      = TEME
TIME_SYSTEM    = UTC
MEAN_ELEMENT_THEORY = SGP/SGP4

EPOCH          = 2026-02-05T09:13:51.577536
MEAN_MOTION    = 15.66107693
ECCENTRICITY   = .00030808
INCLINATION    = 41.4761
RA_OF_ASC_NODE = 41.8476
ARG_OF_PERICENTER = 276.8900
MEAN_ANOMALY   = 83.1590

EPHEMERIS_TYPE = 0
CLASSIFICATION_TYPE = U
NORAD_CAT_ID   = 66515
ELEMENT_SET_NO = 999
REV_AT_EPOCH   = 1300
BSTAR          = .42094529E-3
MEAN_MOTION_DOT = .44396E-3
MEAN_MOTION_DDOT = 0

